<?xml version="1.0" encoding="UTF-8"?>
<kml xmlns="http://www.opengis.net/kml/2.2">
  <Document>
    <name>China — Outubro 2026</name>
    <Placemark>
      <name>The Bund à noite</name>
      <description>Shanghai</description>
      <Point><coordinates>121.49,31.2397,0</coordinates></Point>
    </Placemark>
    <Placemark>
      <name>Yu Garden · Nanshi Old Town</name>
      <description>Shanghai</description>
      <Point><coordinates>121.492,31.227,0</coordinates></Point>
    </Placemark>
    <Placemark>
      <name>798 Art District</name>
      <description>Pequim · n1</description>
      <Point><coordinates>116.4951,39.9847,0</coordinates></Point>
    </Placemark>
    <Placemark>
      <name>Hutongs Nanluoguxiang + Great Leap Brewing</name>
      <description>Pequim · n1</description>
      <Point><coordinates>116.407,39.929,0</coordinates></Point>
    </Placemark>
    <Placemark>
      <name>Muralha — Mutianyu</name>
      <description>Pequim · n2</description>
      <Point><coordinates>116.5704,40.4319,0</coordinates></Point>
    </Placemark>
    <Placemark>
      <name>🦊🐼 Beijing Zoo — pandas gigantes + vermelhos</name>
      <description>Pequim · n3</description>
      <Point><coordinates>116.3353,39.9383,0</coordinates></Point>
    </Placemark>
    <Placemark>
      <name>Palácio de Verão (Yiheyuan)</name>
      <description>Pequim · n3</description>
      <Point><coordinates>116.2752,40.0003,0</coordinates></Point>
    </Placemark>
    <Placemark>
      <name>Templo Yonghe (Lama Temple)</name>
      <description>Pequim · n4</description>
      <Point><coordinates>116.4153,39.9474,0</coordinates></Point>
    </Placemark>
    <Placemark>
      <name>Shichahai + Drum Tower</name>
      <description>Pequim · n4</description>
      <Point><coordinates>116.3907,39.9385,0</coordinates></Point>
    </Placemark>
    <Placemark>
      <name>Tianmen Mountain</name>
      <description>Zhangjiajie · n2</description>
      <Point><coordinates>110.479,29.0517,0</coordinates></Point>
    </Placemark>
    <Placemark>
      <name>72 Wonder Tower (noite)</name>
      <description>Zhangjiajie · n2</description>
      <Point><coordinates>110.479,29.1163,0</coordinates></Point>
    </Placemark>
    <Placemark>
      <name>Avatar Mountains (Yuanjiajie)</name>
      <description>Zhangjiajie · n3</description>
      <Point><coordinates>110.4344,29.3155,0</coordinates></Point>
    </Placemark>
    <Placemark>
      <name>Yellow Dragon Cave (Huanglong Dong)</name>
      <description>Zhangjiajie · n4</description>
      <Point><coordinates>110.5453,29.3567,0</coordinates></Point>
    </Placemark>
    <Placemark>
      <name>Glass Bridge (430m) — reserva obrigatória</name>
      <description>Zhangjiajie · n4</description>
      <Point><coordinates>110.536,29.347,0</coordinates></Point>
    </Placemark>
    <Placemark>
      <name>Furong Ancient Town · cachoeira</name>
      <description>Furong</description>
      <Point><coordinates>109.999,28.68,0</coordinates></Point>
    </Placemark>
    <Placemark>
      <name>🦊🐼 Chimelong Safari Park — pandas + trigêmeos</name>
      <description>Guangzhou · Cantão · n2</description>
      <Point><coordinates>113.328,22.994,0</coordinates></Point>
    </Placemark>
    <Placemark>
      <name>Canton Tower (600m)</name>
      <description>Guangzhou · Cantão · n2</description>
      <Point><coordinates>113.3245,23.1059,0</coordinates></Point>
    </Placemark>
    <Placemark>
      <name>Shamian Island · arquitetura colonial</name>
      <description>Guangzhou · Cantão · n3</description>
      <Point><coordinates>113.2418,23.1018,0</coordinates></Point>
    </Placemark>
    <Placemark>
      <name>Templo dos 6 Banians · Mercado Qingping</name>
      <description>Guangzhou · Cantão · n3</description>
      <Point><coordinates>113.2659,23.1286,0</coordinates></Point>
    </Placemark>
    <Placemark>
      <name>Humble Administrator's Garden</name>
      <description>Shanghai · n2</description>
      <Point><coordinates>120.629,31.326,0</coordinates></Point>
    </Placemark>
    <Placemark>
      <name>Suzhou Museum (I.M. Pei)</name>
      <description>Shanghai · n2</description>
      <Point><coordinates>120.626,31.326,0</coordinates></Point>
    </Placemark>
    <Placemark>
      <name>Pingjiang Road · canais · seda</name>
      <description>Shanghai · n2</description>
      <Point><coordinates>120.635,31.322,0</coordinates></Point>
    </Placemark>
    <Placemark>
      <name>Concessão Francesa — Wukang + Anfu Rd</name>
      <description>Shanghai · n3</description>
      <Point><coordinates>121.457,31.211,0</coordinates></Point>
    </Placemark>
    <Placemark>
      <name>Xintiandi</name>
      <description>Shanghai · n3</description>
      <Point><coordinates>121.471,31.2196,0</coordinates></Point>
    </Placemark>
    <Placemark>
      <name>M50 Art District</name>
      <description>Shanghai · n3</description>
      <Point><coordinates>121.4369,31.2461,0</coordinates></Point>
    </Placemark>
    <Placemark>
      <name>Zhujiajiao</name>
      <description>Shanghai · n4</description>
      <Point><coordinates>121.0636,31.1108,0</coordinates></Point>
    </Placemark>
    <Placemark>
      <name>Shanghai Museum</name>
      <description>Shanghai · n4</description>
      <Point><coordinates>121.4738,31.2296,0</coordinates></Point>
    </Placemark>
    <Placemark>
      <name>Shanghai Tower — mirante (noite)</name>
      <description>Shanghai · n5</description>
      <Point><coordinates>121.5015,31.2356,0</coordinates></Point>
    </Placemark>
  </Document>
</kml>
